{
    "links": {
        "self": "http://www.neowsapp.com/rest/v1/neo/3458578?api_key=iIulBulltgU6a56xZRHN4H3l9WmuAYTsLGpBGhQ2"
    },
    "id": "3458578",
    "neo_reference_id": "3458578",
    "name": "(2009 HS44)",
    "designation": "2009 HS44",
    "nasa_jpl_url": "http://ssd.jpl.nasa.gov/sbdb.cgi?sstr=3458578",
    "absolute_magnitude_h": 26.5,
    "estimated_diameter": {
        "kilometers": {
            "estimated_diameter_min": 0.0133215567,
            "estimated_diameter_max": 0.0297879063
        },
        "meters": {
            "estimated_diameter_min": 13.3215566698,
            "estimated_diameter_max": 29.7879062798
        },
        "miles": {
            "estimated_diameter_min": 0.008277629,
            "estimated_diameter_max": 0.0185093411
        },
        "feet": {
            "estimated_diameter_min": 43.7058959846,
            "estimated_diameter_max": 97.7293544391
        }
    },
    "is_potentially_hazardous_asteroid": false,
    "close_approach_data": [
        {
            "close_approach_date": "2009-04-26",
            "close_approach_date_full": "2009-Apr-26 06:48",
            "epoch_date_close_approach": 1240728480000,
            "relative_velocity": {
                "kilometers_per_second": "18.0206366891",
                "kilometers_per_hour": "64874.2920807517",
                "miles_per_hour": "40310.3622098426"
            },
            "miss_distance": {
                "astronomical": "0.0118389376",
                "lunar": "4.6053467264",
                "kilometers": "1771079.848022912",
                "miles": "1100497.9867917056"
            },
            "orbiting_body": "Earth"
        },
        {
            "close_approach_date": "2096-12-13",
            "close_approach_date_full": "2096-Dec-13 20:41",
            "epoch_date_close_approach": 4006269660000,
            "relative_velocity": {
                "kilometers_per_second": "5.8245096714",
                "kilometers_per_hour": "20968.2348169767",
                "miles_per_hour": "13028.8456839153"
            },
            "miss_distance": {
                "astronomical": "0.8575443915",
                "lunar": "333.5847682935",
                "kilometers": "128286814.398846105",
                "miles": "79713730.092662049"
            },
            "orbiting_body": "Juptr"
        }
    ],
    "orbital_data": {
        "orbit_id": "8",
        "orbit_determination_date": "2017-04-06 09:00:43",
        "first_observation_date": "2009-04-22",
        "last_observation_date": "2009-04-26",
        "data_arc_in_days": 4,
        "observations_used": 34,
        "orbit_uncertainty": "7",
        "minimum_orbit_intersection": ".00612453",
        "jupiter_tisserand_invariant": "3.023",
        "epoch_osculation": "2459000.5",
        "eccentricity": ".701723064267236",
        "semi_major_axis": "2.573803825071049",
        "inclination": "2.438370338636888",
        "ascending_node_longitude": "209.1314694738329",
        "orbital_period": "1508.20921456029",
        "perihelion_distance": ".7677063181194596",
        "perihelion_argument": "73.20154788882353",
        "aphelion_distance": "4.379901332022638",
        "perihelion_time": "2459508.755936493471",
        "mean_anomaly": "238.6825227088975",
        "mean_motion": ".2386936749388288",
        "equinox": "J2000",
        "orbit_class": {
            "orbit_class_type": "APO",
            "orbit_class_description": "Near-Earth asteroid orbits which cross the Earth’s orbit similar to that of 1862 Apollo",
            "orbit_class_range": "a (semi-major axis) > 1.0 AU; q (perihelion) < 1.017 AU"
        }
    },
    "is_sentry_object": false
}